STARLINK-4462           
1 53781U 22111J   26068.87155119  .00000577  00000+0  54373-4 0  9994
2 53781  53.2171 273.3043 0001529 100.3551 259.7613 15.08834955193722
SEDNA-2                 
1 63153U 25009DQ  26068.79893845  .00008085  00000+0  49393-3 0  9990
2 63153  97.4615 144.8075 0010309  53.0260 307.1912 15.10492622 63116
